{
  "type": "FeatureCollection",
  "features": [
    {
      "type": "Feature",
      "properties": {
        "norad_id": 55973,
        "name": "TIANMU-1 03",
        "group": "weather",
        "lat": -81.73187476500217,
        "lon": -130.61960916092352,
        "alt_km": 450.1369031928589,
        "timestamp": "2025-12-27T02:10:15.831409+00:00",
        "meta_object_name": "TIANMU-1 03",
        "meta_object_id": "2023-039A",
        "meta_epoch": "2025-12-26T20:18:49.178592",
        "meta_mean_motion": 15.41342685,
        "meta_eccentricity": 0.0003681,
        "meta_inclination": 97.5115,
        "meta_ra_of_asc_node": 163.8958,
        "meta_arg_of_pericenter": 19.3777,
        "meta_mean_anomaly": 340.7608,
        "meta_ephemeris_type": 0,
        "meta_classification_type": "U",
        "meta_norad_cat_id": 55973,
        "meta_element_set_no": 999,
        "meta_rev_at_epoch": 15423,
        "meta_bstar": 0.00040671,
        "meta_mean_motion_dot": 0.00016893,
        "meta_mean_motion_ddot": 0,
        "tle_line1": "1 55973U 23039A   25360.84640253  .00016893  00000+0  40671-3 0  9991",
        "tle_line2": "2 55973  97.5115 163.8958 0003681  19.3777 340.7608 15.41342685154233"
      },
      "geometry": {
        "type": "Point",
        "coordinates": [
          -130.61960916092352,
          -81.73187476500217
        ]
      }
    },
    {
      "type": "Feature",
      "properties": {
        "norad_id": 55974,
        "name": "TIANMU-1 04",
        "group": "weather",
        "lat": 44.496769851302304,
        "lon": 155.88963262889706,
        "alt_km": 434.9533627632072,
        "timestamp": "2025-12-27T02:10:15.831454+00:00",
        "meta_object_name": "TIANMU-1 04",
        "meta_object_id": "2023-039B",
        "meta_epoch": "2025-12-26T21:18:12.697344",
        "meta_mean_motion": 15.41688281,
        "meta_eccentricity": 0.0004279,
        "meta_inclination": 97.5046,
        "meta_ra_of_asc_node": 163.1237,
        "meta_arg_of_pericenter": 12.5976,
        "meta_mean_anomaly": 347.5377,
        "meta_ephemeris_type": 0,
        "meta_classification_type": "U",
        "meta_norad_cat_id": 55974,
        "meta_element_set_no": 999,
        "meta_rev_at_epoch": 15424,
        "meta_bstar": 0.00041243,
        "meta_mean_motion_dot": 0.00017332,
        "meta_mean_motion_ddot": 0,
        "tle_line1": "1 55974U 23039B   25360.88764696  .00017332  00000+0  41243-3 0  9999",
        "tle_line2": "2 55974  97.5046 163.1237 0004279  12.5976 347.5377 15.41688281154244"
      },
      "geometry": {
        "type": "Point",
        "coordinates": [
          155.88963262889706,
          44.496769851302304
        ]
      }
    },
    {
      "type": "Feature",
      "properties": {
        "norad_id": 55975,
        "name": "TIANMU-1 05",
        "group": "weather",
        "lat": 56.35436951276482,
        "lon": 152.39328708630526,
        "alt_km": 434.40702076851994,
        "timestamp": "2025-12-27T02:10:15.831503+00:00",
        "meta_object_name": "TIANMU-1 05",
        "meta_object_id": "2023-039C",
        "meta_epoch": "2025-12-26T21:14:59.798976",
        "meta_mean_motion": 15.41300189,
        "meta_eccentricity": 0.0003863,
        "meta_inclination": 97.5093,
        "meta_ra_of_asc_node": 163.6142,
        "meta_arg_of_pericenter": 39.3021,
        "meta_mean_anomaly": 320.8505,
        "meta_ephemeris_type": 0,
        "meta_classification_type": "U",
        "meta_norad_cat_id": 55975,
        "meta_element_set_no": 999,
        "meta_rev_at_epoch": 15422,
        "meta_bstar": 0.00041007,
        "meta_mean_motion_dot": 0.0001701,
        "meta_mean_motion_ddot": 0,
        "tle_line1": "1 55975U 23039C   25360.88541434  .00017010  00000+0  41007-3 0  9994",
        "tle_line2": "2 55975  97.5093 163.6142 0003863  39.3021 320.8505 15.41300189154226"
      },
      "geometry": {
        "type": "Point",
        "coordinates": [
          152.39328708630526,
          56.35436951276482
        ]
      }
    },
    {
      "type": "Feature",
      "properties": {
        "norad_id": 55976,
        "name": "TIANMU-1 06",
        "group": "weather",
        "lat": 35.2068120590226,
        "lon": 158.96049390749369,
        "alt_km": 435.88515537352305,
        "timestamp": "2025-12-27T02:10:15.831516+00:00",
        "meta_object_name": "TIANMU-1 06",
        "meta_object_id": "2023-039D",
        "meta_epoch": "2025-12-26T21:20:39.783840",
        "meta_mean_motion": 15.41739291,
        "meta_eccentricity": 0.0004116,
        "meta_inclination": 97.5104,
        "meta_ra_of_asc_node": 164.095,
        "meta_arg_of_pericenter": 32.8894,
        "meta_mean_anomaly": 327.2608,
        "meta_ephemeris_type": 0,
        "meta_classification_type": "U",
        "meta_norad_cat_id": 55976,
        "meta_element_set_no": 999,
        "meta_rev_at_epoch": 15424,
        "meta_bstar": 0.00041029,
        "meta_mean_motion_dot": 0.0001727,
        "meta_mean_motion_ddot": 0,
        "tle_line1": "1 55976U 23039D   25360.88934935  .00017270  00000+0  41029-3 0  9999",
        "tle_line2": "2 55976  97.5104 164.0950 0004116  32.8894 327.2608 15.41739291154247"
      },
      "geometry": {
        "type": "Point",
        "coordinates": [
          158.96049390749369,
          35.2068120590226
        ]
      }
    },
    {
      "type": "Feature",
      "properties": {
        "norad_id": 56232,
        "name": "FENGYUN 3G",
        "group": "weather",
        "lat": 35.415630333789146,
        "lon": -63.267906127925585,
        "alt_km": 408.10943034106094,
        "timestamp": "2025-12-27T02:10:15.831528+00:00",
        "meta_object_name": "FENGYUN 3G",
        "meta_object_id": "2023-055A",
        "meta_epoch": "2025-12-26T19:25:47.618688",
        "meta_mean_motion": 15.52159153,
        "meta_eccentricity": 0.0003929,
        "meta_inclination": 49.9929,
        "meta_ra_of_asc_node": 154.8516,
        "meta_arg_of_pericenter": 296.6985,
        "meta_mean_anomaly": 63.3579,
        "meta_ephemeris_type": 0,
        "meta_classification_type": "U",
        "meta_norad_cat_id": 56232,
        "meta_element_set_no": 999,
        "meta_rev_at_epoch": 15321,
        "meta_bstar": 0.00051601,
        "meta_mean_motion_dot": 0.00031522,
        "meta_mean_motion_ddot": 0,
        "tle_line1": "1 56232U 23055A   25360.80957892  .00031522  00000+0  51601-3 0  9995",
        "tle_line2": "2 56232  49.9929 154.8516 0003929 296.6985  63.3579 15.52159153153212"
      },
      "geometry": {
        "type": "Point",
        "coordinates": [
          -63.267906127925585,
          35.415630333789146
        ]
      }
    },
    {
      "type": "Feature",
      "properties": {
        "norad_id": 57166,
        "name": "METEOR-M2 3",
        "group": "weather",
        "lat": -25.2975231079022,
        "lon": 58.496968857333265,
        "alt_km": 815.0867791078254,
        "timestamp": "2025-12-27T02:10:15.831543+00:00",
        "meta_object_name": "METEOR-M2 3",
        "meta_object_id": "2023-091A",
        "meta_epoch": "2025-12-26T21:13:55.335072",
        "meta_mean_motion": 14.24027733,
        "meta_eccentricity": 0.0003171,
        "meta_inclination": 98.636,
        "meta_ra_of_asc_node": 54.1757,
        "meta_arg_of_pericenter": 324.0542,
        "meta_mean_anomaly": 36.0423,
        "meta_ephemeris_type": 0,
        "meta_classification_type": "U",
        "meta_norad_cat_id": 57166,
        "meta_element_set_no": 999,
        "meta_rev_at_epoch": 12999,
        "meta_bstar": 2.2855e-05,
        "meta_mean_motion_dot": 9e-08,
        "meta_mean_motion_ddot": 0,
        "tle_line1": "1 57166U 23091A   25360.88466823  .00000009  00000+0  22855-4 0  9995",
        "tle_line2": "2 57166  98.6360  54.1757 0003171 324.0542  36.0423 14.24027733129991"
      },
      "geometry": {
        "type": "Point",
        "coordinates": [
          58.496968857333265,
          -25.2975231079022
        ]
      }
    },
    {
      "type": "Feature",
      "properties": {
        "norad_id": 57399,
        "name": "TIANMU-1 07",
        "group": "weather",
        "lat": 46.677518708969885,
        "lon": -121.57968187163628,
        "alt_km": 476.8530928749151,
        "timestamp": "2025-12-27T02:10:15.831554+00:00",
        "meta_object_name": "TIANMU-1 07",
        "meta_object_id": "2023-101A",
        "meta_epoch": "2025-12-26T20:52:42.028032",
        "meta_mean_motion": 15.28274056,
        "meta_eccentricity": 0.0004885,
        "meta_inclination": 97.2857,
        "meta_ra_of_asc_node": 50.4079,
        "meta_arg_of_pericenter": 44.7729,
        "meta_mean_anomaly": 315.3904,
        "meta_ephemeris_type": 0,
        "meta_classification_type": "U",
        "meta_norad_cat_id": 57399,
        "meta_element_set_no": 999,
        "meta_rev_at_epoch": 13531,
        "meta_bstar": 0.00029558,
        "meta_mean_motion_dot": 8.072e-05,
        "meta_mean_motion_ddot": 0,
        "tle_line1": "1 57399U 23101A   25360.86993088  .00008072  00000+0  29558-3 0  9995",
        "tle_line2": "2 57399  97.2857  50.4079 0004885  44.7729 315.3904 15.28274056135314"
      },
      "geometry": {
        "type": "Point",
        "coordinates": [
          -121.57968187163628,
          46.677518708969885
        ]
      }
    }
  ]
}